#
# this file is automatically produced by convkeps.pl
#
# Last update: Mon Feb 13 21:08:07 2006
#

package Sun;

%keps = (
  'NOAA-10' => {
    elset => 80,
    epoch => '6033.47748887',
    bstar => '4.6675e-05',
    number => 86073,
    inclination => '98.7647',
    mm1 => '6.9e-07',
    raan => '44.7965',
    eccentricity => '0.0012479',
    mm2 => 0,
    argperigee => '179.3258',
    orbit => 794,
    meanmotion => '14.272848',
    id => 16969,
    meananomaly => '180.7948'
  },
  'AO-40' => {
    elset => 671,
    epoch => '6033.20915682',
    bstar => '0.0001',
    number => 72,
    inclination => '7.332',
    mm1 => '-1.25e-06',
    raan => '257.2451',
    eccentricity => '0.791554',
    mm2 => 0,
    argperigee => '128.0107',
    orbit => 2415,
    meanmotion => '1.25583209',
    id => 26609,
    meananomaly => '332.5414'
  },
  HUBBLE => {
    elset => 537,
    epoch => '6033.6271049',
    bstar => '2.0381e-05',
    number => 90037,
    inclination => '28.4651',
    mm1 => '4.26e-06',
    raan => '207.0139',
    eccentricity => '0.0004206',
    mm2 => 0,
    argperigee => '197.9472',
    orbit => 66487,
    meanmotion => '14.99957911',
    id => 20580,
    meananomaly => '162.096'
  },
  ISS => {
    elset => 274,
    epoch => '6033.92501278',
    bstar => '8.7171e-05',
    number => 98067,
    inclination => '51.6439',
    mm1 => '0.00012329',
    raan => '157.9454',
    eccentricity => '0.0009122',
    mm2 => 0,
    argperigee => '227.1982',
    orbit => 41200,
    meanmotion => '15.7443497',
    id => 25544,
    meananomaly => '234.5101'
  },
  'VO-52' => {
    elset => 243,
    epoch => '6032.80018944',
    bstar => '3.9066e-05',
    number => 5017,
    inclination => '97.8868',
    mm1 => '2.52e-06',
    raan => '108.1675',
    eccentricity => '0.0028525',
    mm2 => 0,
    argperigee => '81.7959',
    orbit => 4034,
    meanmotion => '14.81044391',
    id => 28650,
    meananomaly => '278.6451'
  },
  'SO-33' => {
    elset => 572,
    epoch => '6033.73825786',
    bstar => '-3.9864e-05',
    number => 98061,
    inclination => '31.4298',
    mm1 => '-1.46e-06',
    raan => '169.3448',
    eccentricity => '0.0355402',
    mm2 => 0,
    argperigee => '21.1536',
    orbit => 37980,
    meanmotion => '14.28071519',
    id => 25509,
    meananomaly => '340.339'
  },
  'NO-45' => {
    elset => 232,
    epoch => '6033.19376194',
    bstar => '3.9873e-06',
    number => 1043,
    inclination => '67.0595',
    mm1 => '-7.2e-07',
    raan => '355.0698',
    eccentricity => '0.0006618',
    mm2 => 0,
    argperigee => '289.4953',
    orbit => 22667,
    meanmotion => '14.29513752',
    id => 26932,
    meananomaly => '70.544'
  },
  'NOAA-14' => {
    elset => 979,
    epoch => '6033.46690783',
    bstar => '5.3389e-05',
    number => 94089,
    inclination => '99.0581',
    mm1 => '5.5e-07',
    raan => '90.1834',
    eccentricity => '0.0010006',
    mm2 => 0,
    argperigee => '73.154',
    orbit => 57203,
    meanmotion => '14.13633482',
    id => 23455,
    meananomaly => '287.0709'
  },
  'AO-27' => {
    elset => 324,
    epoch => '6032.9056194',
    bstar => '1.0724e-05',
    number => 93061,
    inclination => '98.2693',
    mm1 => '-1.4e-07',
    raan => '21.4662',
    eccentricity => '0.0007987',
    mm2 => 0,
    argperigee => '308.589',
    orbit => 64403,
    meanmotion => '14.29161002',
    id => 22825,
    meananomaly => '51.4576'
  },
  'AO-51' => {
    elset => 451,
    epoch => '6033.74050623',
    bstar => '1.9628e-05',
    number => 4025,
    inclination => '98.1865',
    mm1 => '2.1e-07',
    raan => '91.7806',
    eccentricity => '0.0083323',
    mm2 => 0,
    argperigee => '254.7877',
    orbit => 8380,
    meanmotion => '14.40502686',
    id => 28375,
    meananomaly => '104.4091'
  },
  'AO-07' => {
    elset => 555,
    epoch => '6032.75507474',
    bstar => '0.0001',
    number => 74089,
    inclination => '101.5919',
    mm1 => '-2.8e-07',
    raan => '78.9684',
    eccentricity => '0.0012116',
    mm2 => 0,
    argperigee => '149.1255',
    orbit => 42841,
    meanmotion => '12.53571784',
    id => 7530,
    meananomaly => '211.0532'
  },
  'MO-46' => {
    elset => 403,
    epoch => '6033.7752293',
    bstar => '2.2452e-05',
    number => 57,
    inclination => '64.5576',
    mm1 => '3.3e-07',
    raan => '287.4574',
    eccentricity => '0.0052189',
    mm2 => 0,
    argperigee => '266.2765',
    orbit => 28947,
    meanmotion => '14.82908384',
    id => 26548,
    meananomaly => '93.2362'
  },
  'LO-19' => {
    elset => 603,
    epoch => '6032.90211048',
    bstar => '2.1616e-05',
    number => 90005,
    inclination => '98.2016',
    mm1 => '1.7e-07',
    raan => '59.7535',
    eccentricity => '0.0011084',
    mm2 => 0,
    argperigee => '235.7785',
    orbit => 83709,
    meanmotion => '14.31953458',
    id => 20442,
    meananomaly => '124.2346'
  },
  NCUBE2 => {
    elset => 23,
    epoch => '6033.24794707',
    bstar => '4.7782e-05',
    number => 5043,
    inclination => '98.1787',
    mm1 => '1.8e-06',
    raan => '293.5821',
    eccentricity => '0.0016139',
    mm2 => 0,
    argperigee => '233.9305',
    orbit => 644,
    meanmotion => '14.59508892',
    id => 28897,
    meananomaly => '126.0401'
  },
  'UO-36' => {
    elset => 955,
    epoch => '6033.71274393',
    bstar => '3.239e-05',
    number => 99021,
    inclination => '64.5598',
    mm1 => '9.9e-07',
    raan => '295.7337',
    eccentricity => '0.000328',
    mm2 => 0,
    argperigee => '317.0015',
    orbit => 36590,
    meanmotion => '14.78575102',
    id => 25693,
    meananomaly => '43.084'
  },
  'AO-16' => {
    elset => 665,
    epoch => '6032.56940273',
    bstar => '2.1459e-05',
    number => 90005,
    inclination => '98.1924',
    mm1 => '1.7e-07',
    raan => '50.102',
    eccentricity => '0.0010028',
    mm2 => 0,
    argperigee => '237.6804',
    orbit => 83691,
    meanmotion => '14.31709162',
    id => 20439,
    meananomaly => '122.3414'
  },
  'OO-38' => {
    elset => 537,
    epoch => '6032.7510366',
    bstar => '6.2697e-07',
    number => 4,
    inclination => '100.191',
    mm1 => '-5.7e-07',
    raan => '299.4211',
    eccentricity => '0.0037028',
    mm2 => 0,
    argperigee => '128.288',
    orbit => 31524,
    meanmotion => '14.35751653',
    id => 26063,
    meananomaly => '232.1639'
  },
  'UWE-1' => {
    elset => 338,
    epoch => '6033.8087692',
    bstar => '4.8638e-05',
    number => 5043,
    inclination => '98.1799',
    mm1 => '1.83e-06',
    raan => '294.0992',
    eccentricity => '0.001655',
    mm2 => 0,
    argperigee => '228.8919',
    orbit => 1437,
    meanmotion => '14.59299865',
    id => 28892,
    meananomaly => '131.0849'
  },
  'FO-29' => {
    elset => 151,
    epoch => '6032.61300857',
    bstar => '-5.6517e-06',
    number => 96046,
    inclination => '98.5168',
    mm1 => '-4.4e-07',
    raan => '55.8616',
    eccentricity => '0.0350202',
    mm2 => 0,
    argperigee => '301.5979',
    orbit => 46721,
    meanmotion => '13.52918618',
    id => 24278,
    meananomaly => '55.1416'
  },
  'NO-44' => {
    elset => 224,
    epoch => '6032.40068536',
    bstar => '9.965e-05',
    number => 1043,
    inclination => '67.0541',
    mm1 => '1.72e-06',
    raan => '357.4278',
    eccentricity => '0.0006822',
    mm2 => 0,
    argperigee => '273.2656',
    orbit => 22652,
    meanmotion => '14.294245',
    id => 26931,
    meananomaly => '86.7683'
  },
  'XI-V' => {
    elset => 320,
    epoch => '6033.73642282',
    bstar => '5.0971e-05',
    number => 5043,
    inclination => '98.1818',
    mm1 => '1.95e-06',
    raan => '294.0616',
    eccentricity => '0.0017041',
    mm2 => 0,
    argperigee => '229.0163',
    orbit => 1424,
    meanmotion => '14.59355862',
    id => 28895,
    meananomaly => '130.9565'
  },
  'TO-31' => {
    elset => 448,
    epoch => '6033.78869058',
    bstar => '3.3313e-05',
    number => 98043,
    inclination => '98.4984',
    mm1 => '3.4e-07',
    raan => '98.7678',
    eccentricity => '0.0001856',
    mm2 => 0,
    argperigee => '219.2504',
    orbit => 39322,
    meanmotion => '14.23695764',
    id => 25396,
    meananomaly => '140.8553'
  },
  'XO-53' => {
    elset => 313,
    epoch => '6033.73018651',
    bstar => '3.4578e-05',
    number => 5043,
    inclination => '98.1805',
    mm1 => '1.17e-06',
    raan => '294.0696',
    eccentricity => '0.0016659',
    mm2 => 0,
    argperigee => '231.2133',
    orbit => 1436,
    meanmotion => '14.59434531',
    id => 28894,
    meananomaly => '128.7581'
  },
  'SO-50' => {
    elset => 933,
    epoch => '6032.81898394',
    bstar => '2.4268e-05',
    number => 2058,
    inclination => '64.5572',
    mm1 => '1.4e-07',
    raan => '163.9841',
    eccentricity => '0.0059434',
    mm2 => 0,
    argperigee => '188.2589',
    orbit => 16751,
    meanmotion => '14.71092263',
    id => 27607,
    meananomaly => '171.7549'
  },
  'WO-18' => {
    elset => 864,
    epoch => '6032.6323916',
    bstar => '1.7113e-05',
    number => 90005,
    inclination => '98.198',
    mm1 => '5e-08',
    raan => '54.7379',
    eccentricity => '0.0010633',
    mm2 => 0,
    argperigee => '240.7606',
    orbit => 83698,
    meanmotion => '14.3178024',
    id => 20441,
    meananomaly => '119.2521'
  },
  'IO-26' => {
    elset => 11,
    epoch => '6032.82842718',
    bstar => '2.9112e-05',
    number => 93061,
    inclination => '98.2643',
    mm1 => '3.3e-07',
    raan => '22.637',
    eccentricity => '0.0008292',
    mm2 => 0,
    argperigee => '305.4374',
    orbit => 64409,
    meanmotion => '14.29404229',
    id => 22826,
    meananomaly => '54.6025'
  },
  RESURS => {
    elset => 291,
    epoch => '6033.87725612',
    bstar => '4.7413e-06',
    number => 98043,
    inclination => '98.5111',
    mm1 => '-3.1e-07',
    raan => '101.1942',
    eccentricity => '0.0001097',
    mm2 => 0,
    argperigee => '175.5612',
    orbit => 39328,
    meanmotion => '14.2409484',
    id => 25394,
